STARLINK-1096           
1 44942U 20001AE  23032.31942969  .00032480  00000+0  17031-2 0  9999
2 44942  53.0558   3.1538 0001877 115.8732 244.2455 15.15503967169555
STARLINK-1100           
1 44943U 20001AF  23033.15292729  .00000381  00000+0  44464-4 0  9992
2 44943  53.0528   6.2907 0001661  99.8676 260.2500 15.06395756169572
STARLINK-1108           
1 44944U 20001AG  23033.13449552  .00000531  00000+0  54513-4 0  9992
2 44944  53.0548   6.3703 0001290  98.7803 261.3332 15.06397525169579
STARLINK-1109           
1 44945U 20001AH  23033.09763555 -.00001872  00000+0 -10682-3 0  9999
2 44945  53.0537   6.5388 0001782  95.9628 264.1564 15.06391398169568
STARLINK-1110           
1 44946U 20001AJ  23033.09106750  .00041802  00000+0  16143-2 0  9990
2 44946  53.0175 333.7518 0000155 340.3712  19.7279 15.25880311169983
STARLINK-1116           
1 44947U 20001AK  23033.11975122  .00000796  00000+0  72328-4 0  9997
2 44947  53.0538   6.4389 0001314  96.3979 263.7160 15.06399466169578
STARLINK-1122           
1 44949U 20001AM  23033.14555267 -.00000012  00000+0  18080-4 0  9993
2 44949  53.0562   6.3238 0001930 128.3377 231.7786 15.06399876169575
STARLINK-1125           
1 44950U 20001AN  23032.24592378  .00061108  00000+0  25904-2 0  9992
2 44950  53.0557 356.4682 0004106 118.5483 241.5926 15.22570657169638
STARLINK-1126           
1 44951U 20001AP  23033.09463321  .00045570  00000+0  17561-2 0  9997
2 44951  53.0213 334.9974 0000864 177.1658 182.9344 15.25912094171256
STARLINK-1117           
1 44952U 20001AQ  23033.12712678  .00000672  00000+0  64040-4 0  9994
2 44952  53.0556   6.4051 0001393  91.0028 269.1120 15.06395617169574
STARLINK-1124           
1 44953U 20001AR  23033.14461106 -.00000655  00000+0 -25093-4 0  9992
2 44953  53.0550   6.3298 0002178 115.4314 244.6901 15.06396237170860
STARLINK-1066           
1 44954U 20001AS  23033.15845685 -.00001020  00000+0 -49614-4 0  9994
2 44954  53.0531 346.2655 0001307  89.8690 270.2449 15.06394626169801
STARLINK-1069           
1 44955U 20001AT  23033.16582743 -.00001134  00000+0 -57247-4 0  9996
2 44955  53.0554 346.2216 0001637  91.1015 269.0162 15.06395321169804
STARLINK-1070           
1 44956U 20001AU  23033.16119678 -.00000531  00000+0 -16764-4 0  9999
2 44956  53.0560 346.2368 0001469  91.2823 268.8334 15.06394224169866
STARLINK-1074           
1 44957U 20001AV  23033.12065183  .00000123  00000+0  27139-4 0  9990
2 44957  53.0568 346.4123 0001316  95.6346 264.4793 15.06394379169856
STARLINK-1076           
1 44959U 20001AX  23033.13634168  .00001023  00000+0  87594-4 0  9999
2 44959  53.0558 346.3594 0001443  99.3266 260.7886 15.06397380169858
STARLINK-1080           
1 44961U 20001AZ  23033.14371041  .00002091  00000+0  15922-3 0  9992
2 44961  53.0523 346.3325 0001216  98.3001 261.8126 15.06398367169865
STARLINK-1085           
1 44963U 20001BB  23032.17368228  .00108970  00000+0  29770-2 0  9997
2 44963  52.9758 311.8252 0007208 146.6444 213.5013 15.36537290170938
STARLINK-1086           
1 44964U 20001BC  23033.10685462 -.00001395  00000+0 -74769-4 0  9999
2 44964  53.0558 346.4921 0001520  95.6963 264.4199 15.06392237169852
STARLINK-1088           
1 44966U 20001BE  23032.26382047  .00023070  00000+0  15368-2 0  9990
2 44966  53.0529 350.2573 0002215 120.2449 239.8760 15.07018266169728
STARLINK-1089           
1 44967U 20001BF  23033.15108519  .00000448  00000+0  48957-4 0  9996
2 44967  53.0549 346.2884 0001436  85.9132 274.2021 15.06397241169861
STARLINK-1090           
1 44968U 20001BG  23033.14739818  .00001239  00000+0  10207-3 0  9993
2 44968  53.0539 346.3119 0001436  98.1024 262.0128 15.06399394169863
STARLINK-1092           
1 44969U 20001BH  23032.27751001  .00004425  00000+0  31581-3 0  9993
2 44969  53.0535 350.2198 0001329  80.0187 280.0952 15.06392592169725
STARLINK-1093           
1 44970U 20001BJ  23033.11790503  .00000603  00000+0  59384-4 0  9995
2 44970  53.0553 346.4374 0001792 124.0092 236.1068 15.06397251169848
STARLINK-1107           
1 44972U 20001BL  23032.29225480  .00000142  00000+0  28439-4 0  9997
2 44972  53.0545 350.1520 0001683  92.4571 267.6611 15.06398059169733
STARLINK-1115           
1 44973U 20001BM  23033.13265673  .00001633  00000+0  12848-3 0  9992
2 44973  53.0553 346.3803 0000912  73.2196 286.8893 15.06395764169856
TJS-5                   
1 44978U 20002A   23032.73104911 -.00000339  00000+0  00000+0 0  9996
2 44978   0.1302  79.8677 0004980 148.5405 273.8593  1.00267927 11342
JILIN-01 KUANFU 01      
1 45016U 20003A   23033.15734734  .00003576  00000+0  21865-3 0  9991
2 45016  97.6411 102.3713 0001370  95.0543 348.8273 15.10897884169327
NUSAT-7 (SOPHIE)        
1 45017U 20003B   23033.13198788  .00023094  00000+0  53619-3 0  9992
2 45017  97.1843  95.6037 0009244 247.5338 196.3462 15.42328068170527
NUSAT-8 (MARIE)         
1 45018U 20003C   23033.13118814  .00030164  00000+0  59491-3 0  9995
2 45018  97.1976  98.9223 0007983 244.3043 199.4206 15.47108149170648
