OBJECT_NAME,OBJECT_ID,EPOCH,MEAN_MOTION,ECCENTRICITY,INCLINATION,RA_OF_ASC_NODE,ARG_OF_PERICENTER,MEAN_ANOMALY,EPHEMERIS_TYPE,CLASSIFICATION_TYPE,NORAD_CAT_ID,ELEMENT_SET_NO,REV_AT_EPOCH,BSTAR,MEAN_MOTION_DOT,MEAN_MOTION_DDOT
STARLINK-1096,2020-001AE,2023-02-01T07:39:58.725216,15.15503967,.0001877,53.0558,3.1538,115.8732,244.2455,0,U,44942,999,16955,.17031E-2,.3248E-3,0
STARLINK-1100,2020-001AF,2023-02-02T03:40:12.917856,15.06395756,.0001661,53.0528,6.2907,99.8676,260.2500,0,U,44943,999,16957,.44464E-4,.381E-5,0
STARLINK-1108,2020-001AG,2023-02-02T03:13:40.412928,15.06397525,.000129,53.0548,6.3703,98.7803,261.3332,0,U,44944,999,16957,.54513E-4,.531E-5,0
STARLINK-1109,2020-001AH,2023-02-02T02:20:35.711520,15.06391398,.0001782,53.0537,6.5388,95.9628,264.1564,0,U,44945,999,16956,-.10682E-3,-.1872E-4,0
STARLINK-1110,2020-001AJ,2023-02-02T02:11:08.232000,15.25880311,.0000155,53.0175,333.7518,340.3712,19.7279,0,U,44946,999,16998,.16143E-2,.41802E-3,0
STARLINK-1116,2020-001AK,2023-02-02T02:52:26.505408,15.06399466,.0001314,53.0538,6.4389,96.3979,263.7160,0,U,44947,999,16957,.72328E-4,.796E-5,0
STARLINK-1122,2020-001AM,2023-02-02T03:29:35.750688,15.06399876,.000193,53.0562,6.3238,128.3377,231.7786,0,U,44949,999,16957,.1808E-4,-.12E-6,0
STARLINK-1125,2020-001AN,2023-02-01T05:54:07.814592,15.22570657,.0004106,53.0557,356.4682,118.5483,241.5926,0,U,44950,999,16963,.25904E-2,.61108E-3,0
STARLINK-1126,2020-001AP,2023-02-02T02:16:16.309344,15.25912094,.0000864,53.0213,334.9974,177.1658,182.9344,0,U,44951,999,17125,.17561E-2,.4557E-3,0
STARLINK-1117,2020-001AQ,2023-02-02T03:03:03.753792,15.06395617,.0001393,53.0556,6.4051,91.0028,269.1120,0,U,44952,999,16957,.6404E-4,.672E-5,0
STARLINK-1124,2020-001AR,2023-02-02T03:28:14.395584,15.06396237,.0002178,53.0550,6.3298,115.4314,244.6901,0,U,44953,999,17086,-.25093E-4,-.655E-5,0
STARLINK-1066,2020-001AS,2023-02-02T03:48:10.671840,15.06394626,.0001307,53.0531,346.2655,89.8690,270.2449,0,U,44954,999,16980,-.49614E-4,-.102E-4,0
STARLINK-1069,2020-001AT,2023-02-02T03:58:47.489952,15.06395321,.0001637,53.0554,346.2216,91.1015,269.0162,0,U,44955,999,16980,-.57247E-4,-.1134E-4,0
STARLINK-1070,2020-001AU,2023-02-02T03:52:07.401792,15.06394224,.0001469,53.0560,346.2368,91.2823,268.8334,0,U,44956,999,16986,-.16764E-4,-.531E-5,0
STARLINK-1074,2020-001AV,2023-02-02T02:53:44.318112,15.06394379,.0001316,53.0568,346.4123,95.6346,264.4793,0,U,44957,999,16985,.27139E-4,.123E-5,0
STARLINK-1076,2020-001AX,2023-02-02T03:16:19.921152,15.06397380,.0001443,53.0558,346.3594,99.3266,260.7886,0,U,44959,999,16985,.87594E-4,.1023E-4,0
STARLINK-1080,2020-001AZ,2023-02-02T03:26:56.579424,15.06398367,.0001216,53.0523,346.3325,98.3001,261.8126,0,U,44961,999,16986,.15922E-3,.2091E-4,0
STARLINK-1085,2020-001BB,2023-02-01T04:10:06.148992,15.36537290,.0007208,52.9758,311.8252,146.6444,213.5013,0,U,44963,999,17093,.2977E-2,.10897E-2,0
STARLINK-1086,2020-001BC,2023-02-02T02:33:52.239168,15.06392237,.000152,53.0558,346.4921,95.6963,264.4199,0,U,44964,999,16985,-.74769E-4,-.1395E-4,0
STARLINK-1088,2020-001BE,2023-02-01T06:19:54.088608,15.07018266,.0002215,53.0529,350.2573,120.2449,239.8760,0,U,44966,999,16972,.15368E-2,.2307E-3,0
STARLINK-1089,2020-001BF,2023-02-02T03:37:33.760416,15.06397241,.0001436,53.0549,346.2884,85.9132,274.2021,0,U,44967,999,16986,.48957E-4,.448E-5,0
STARLINK-1090,2020-001BG,2023-02-02T03:32:15.202752,15.06399394,.0001436,53.0539,346.3119,98.1024,262.0128,0,U,44968,999,16986,.10207E-3,.1239E-4,0
STARLINK-1092,2020-001BH,2023-02-01T06:39:36.864864,15.06392592,.0001329,53.0535,350.2198,80.0187,280.0952,0,U,44969,999,16972,.31581E-3,.4425E-4,0
STARLINK-1093,2020-001BJ,2023-02-02T02:49:46.994592,15.06397251,.0001792,53.0553,346.4374,124.0092,236.1068,0,U,44970,999,16984,.59384E-4,.603E-5,0
STARLINK-1107,2020-001BL,2023-02-01T07:00:50.814720,15.06398059,.0001683,53.0545,350.1520,92.4571,267.6611,0,U,44972,999,16973,.28439E-4,.142E-5,0
STARLINK-1115,2020-001BM,2023-02-02T03:11:01.541472,15.06395764,.0000912,53.0553,346.3803,73.2196,286.8893,0,U,44973,999,16985,.12848E-3,.1633E-4,0
TJS-5,2020-002A,2023-02-01T17:32:42.643104,1.00267927,.000498,0.1302,79.8677,148.5405,273.8593,0,U,44978,999,1134,0,-.339E-5,0
JILIN-01 KUANFU 01,2020-003A,2023-02-02T03:46:34.810176,15.10897884,.000137,97.6411,102.3713,95.0543,348.8273,0,U,45016,999,16932,.21865E-3,.3576E-4,0
NUSAT-7 (SOPHIE),2020-003B,2023-02-02T03:10:03.752832,15.42328068,.0009244,97.1843,95.6037,247.5338,196.3462,0,U,45017,999,17052,.53619E-3,.23094E-3,0
NUSAT-8 (MARIE),2020-003C,2023-02-02T03:08:54.655296,15.47108149,.0007983,97.1976,98.9223,244.3043,199.4206,0,U,45018,999,17064,.59491E-3,.30164E-3,0
